NORAD_CAT_ID,OBJECT_NAME,OBJECT_TYPE,EPOCH,MEAN_MOTION,ECCENTRICITY,INCLINATION,RA_OF_ASC_NODE,ARG_OF_PERICENTER,MEAN_ANOMALY,BSTAR,MEAN_MOTION_DOT,MEAN_MOTION_DDOT,TLE_LINE0,TLE_LINE1,TLE_LINE2,SEMIMAJOR_AXIS,PERIOD,APOGEE,PERIGEE,DECAYED
55398.0,STARLINK-5275,PAYLOAD,2023-03-13 01:51:39,15.69918025,0.0004048,69.9994,336.1309,275.1928,84.8806,-9.2536e-06,-1.326e-05,0.0,0 STARLINK-5275,1 55398U 23014H   23072.07754400 -.00001326  00000-0 -92536-5 0  9995,2 55398  69.9994 336.1309 0004048 275.1928  84.8806 15.69918025  6548,6737.269,91.725,361.861,356.406,0.0
55398.0,STARLINK-5275,PAYLOAD,2023-03-14 02:19:43,15.69944862,0.0003326,69.9983,333.2613,273.9192,86.1624,0.00014037,0.00016713,0.0,0 STARLINK-5275,1 55398U 23014H   23073.09702583  .00016713  00000-0  14037-3 0  9995,2 55398  69.9983 333.2613 0003326 273.9192  86.1624 15.69944862  6708,6737.192,91.723,361.298,356.816,0.0
55398.0,STARLINK-5275,PAYLOAD,2023-03-15 02:47:44,15.69910411,0.0002941,69.9995,330.399,274.936,85.15,-3.1898e-05,-4.044e-05,0.0,0 STARLINK-5275,1 55398U 23014H   23074.11649044 -.00004044  00000-0 -31898-4 0  9992,2 55398  69.9995 330.3990 0002941 274.9360  85.1500 15.69910411  6869,6737.29,91.725,361.137,357.174,0.0
55398.0,STARLINK-5275,PAYLOAD,2023-03-15 21:08:46,15.69910994,0.0003034,69.999,328.2444,273.5968,86.4881,-7.6863e-05,-9.439e-05,0.0,0 STARLINK-5275,1 55398U 23014H   23074.88108834 -.00009439  00000-0 -76863-4 0  9997,2 55398  69.9990 328.2444 0003034 273.5968  86.4881 15.69910994  7927,6737.289,91.725,361.198,357.11,0.0
55398.0,STARLINK-5275,PAYLOAD,2023-03-16 03:15:46,15.69926301,0.0003134,69.9972,327.5282,273.7686,86.3151,-3.8884e-06,-6.8e-06,0.0,0 STARLINK-5275,1 55398U 23014H   23075.13595902 -.00000680  00000-0 -38884-5 0  9993,2 55398  69.9972 327.5282 0003134 273.7686  86.3151 15.69926301  7028,6737.245,91.724,361.221,356.998,0.0
55398.0,STARLINK-5275,PAYLOAD,2023-03-16 15:29:46,15.69947428,0.0003623,69.9994,326.0945,271.5469,88.5312,5.5769e-05,6.505e-05,0.0,0 STARLINK-5275,1 55398U 23014H   23075.64567973  .00006505  00000-0  55769-4 0  9996,2 55398  69.9994 326.0945 0003623 271.5469  88.5312 15.69947428  7105,6737.184,91.723,361.49,356.609,0.0
55398.0,STARLINK-5275,PAYLOAD,2023-03-17 02:12:03,15.69931037,0.0003119,69.9962,324.8426,283.2774,76.8074,2.2423e-05,2.485e-05,0.0,0 STARLINK-5275,1 55398U 23014H   23076.09170259  .00002485  00000-0  22423-4 0  9997,2 55398  69.9962 324.8426 0003119 283.2774  76.8074 15.69931037  7170,6737.231,91.724,361.198,356.995,0.0
55398.0,STARLINK-5275,PAYLOAD,2023-03-17 09:50:49,15.69917124,0.0003418,69.9978,323.9456,270.7496,89.3308,8.614e-07,-1.09e-06,0.0,0 STARLINK-5275,1 55398U 23014H   23076.41029098 -.00000109  00000-0  86140-6 0  9997,2 55398  69.9978 323.9456 0003418 270.7496  89.3308 15.69917124  7220,6737.271,91.725,361.439,356.833,0.0
55398.0,STARLINK-5275,PAYLOAD,2023-03-17 20:33:04,15.69934584,0.0003372,69.9988,322.6916,278.1405,81.9408,6.1378e-05,7.177e-05,0.0,0 STARLINK-5275,1 55398U 23014H   23076.85630082  .00007177  00000-0  61378-4 0  9991,2 55398  69.9988 322.6916 0003372 278.1405  81.9408 15.69934584  8239,6737.221,91.724,361.358,356.814,0.0
55398.0,STARLINK-5275,PAYLOAD,2023-03-18 02:40:05,15.69917738,0.0002816,69.9992,321.9748,282.8683,77.2198,-4.577e-05,-5.71e-05,0.0,0 STARLINK-5275,1 55398U 23014H   23077.11117072 -.00005710  00000-0 -45770-4 0  9991,2 55398  69.9992 321.9748 0002816 282.8683  77.2198 15.69917738  7337,6737.269,91.725,361.032,357.237,0.0
55398.0,STARLINK-5275,PAYLOAD,2023-03-18 19:29:20,15.69929928,0.0003456,69.9985,320.0049,270.0315,90.0485,1.1432e-05,1.162e-05,0.0,0 STARLINK-5275,1 55398U 23014H   23077.81204693  .00001162  00000-0  11432-4 0  9997,2 55398  69.9985 320.0049 0003456 270.0315  90.0485 15.69929928  7443,6737.234,91.724,361.428,356.771,0.0
55398.0,STARLINK-5275,PAYLOAD,2023-03-18 22:32:51,15.6992947,0.0003738,69.9979,319.6461,267.4434,92.6334,1.3793e-05,1.446e-05,0.0,0 STARLINK-5275,1 55398U 23014H   23077.93947986  .00001446  00000-0  13793-4 0  9996,2 55398  69.9979 319.6461 0003738 267.4434  92.6334 15.69929470  8403,6737.236,91.724,361.619,356.582,0.0
55398.0,STARLINK-5275,PAYLOAD,2023-03-19 01:36:21,15.69919208,0.0002807,69.9989,319.2879,270.7322,89.3552,-1.8067e-05,-2.384e-05,0.0,0 STARLINK-5275,1 55398U 23014H   23078.06691685 -.00002384  00000-0 -18067-4 0  9996,2 55398  69.9989 319.2879 0002807 270.7322  89.3552 15.69919208  7482,6737.265,91.724,361.021,357.239,0.0
55398.0,STARLINK-5275,PAYLOAD,2023-03-19 09:15:07,15.69913701,0.0002646,69.9989,318.3918,269.8617,90.2276,-1.5323e-05,-2.053e-05,0.0,0 STARLINK-5275,1 55398U 23014H   23078.38550446 -.00002053  00000-0 -15323-4 0  9995,2 55398  69.9989 318.3918 0002646 269.8617  90.2276 15.69913701  8479,6737.281,91.725,360.929,357.363,0.0
55398.0,STARLINK-5275,PAYLOAD,2023-03-19 18:25:38,15.69925774,0.0003484,69.999,317.3162,267.5869,92.4928,3.2576e-05,3.706e-05,0.0,0 STARLINK-5275,1 55398U 23014H   23078.76780127  .00003706  00000-0  32576-4 0  9991,2 55398  69.9990 317.3162 0003484 267.5869  92.4928 15.69925774  8534,6737.246,91.724,361.459,356.764,0.0
55398.0,STARLINK-5275,PAYLOAD,2023-03-20 03:36:08,15.69926394,0.0003382,69.9986,316.2414,266.6636,93.4173,1.3293e-05,1.386e-05,0.0,0 STARLINK-5275,1 55398U 23014H   23079.15009834  .00001386  00000-0  13293-4 0  9991,2 55398  69.9986 316.2414 0003382 266.6636  93.4173 15.69926394  7650,6737.245,91.724,361.388,356.831,0.0
55398.0,STARLINK-5275,PAYLOAD,2023-03-20 18:53:39,15.69935575,0.0003683,69.9986,314.4501,267.6457,92.4317,0.00020611,0.00024656,0.0,0 STARLINK-5275,1 55398U 23014H   23079.78726641  .00024656  00000-0  20611-3 0  9998,2 55398  69.9986 314.4501 0003683 267.6457  92.4317 15.69935575  8698,6737.218,91.724,361.565,356.602,0.0
55398.0,STARLINK-5275,PAYLOAD,2023-03-20 23:28:54,15.69950541,0.0003624,69.9981,313.9126,268.6933,91.3847,0.00029755,0.00035759,0.0,0 STARLINK-5275,1 55398U 23014H   23079.97841397  .00035759  00000-0  29755-3 0  9999,2 55398  69.9981 313.9126 0003624 268.6933  91.3847 15.69950541  7780,6737.176,91.723,361.482,356.599,0.0
55398.0,STARLINK-5275,PAYLOAD,2023-03-22 01:28:42,15.69916017,0.0003319,69.9979,310.867,316.7837,43.3097,0.00029594,0.0003551,0.0,0 STARLINK-5275,1 55398U 23014H   23081.06160863  .00035510  00000-0  29594-3 0  9990,2 55398  69.9979 310.8670 0003319 316.7837  43.3097 15.69916017  7959,6737.274,91.725,361.375,356.903,0.0
55398.0,STARLINK-5275,PAYLOAD,2023-03-22 21:21:28,15.69935782,0.0003638,69.9973,308.5381,277.0603,83.0179,0.00011009,0.00013052,0.0,0 STARLINK-5275,1 55398U 23014H   23081.88991666  .00013052  00000-0  11009-3 0  9992,2 55398  69.9973 308.5381 0003638 277.0603  83.0179 15.69935782  9022,6737.218,91.723,361.534,356.632,0.0
55398.0,STARLINK-5275,PAYLOAD,2023-03-23 00:24:59,15.69911515,0.0002454,69.9991,308.1827,305.2797,54.8169,1.0276e-05,1.023e-05,0.0,0 STARLINK-5275,1 55398U 23014H   23082.01735838  .00001023  00000-0  10276-4 0  9996,2 55398  69.9991 308.1827 0002454 305.2797  54.8169 15.69911515  8107,6737.287,91.725,360.805,357.499,0.0
55398.0,STARLINK-5275,PAYLOAD,2023-03-23 17:14:16,15.69920157,0.0003416,70.0002,306.2073,272.4876,87.5929,2.9464e-05,3.331e-05,0.0,0 STARLINK-5275,1 55398U 23014H   23082.71824150  .00003331  00000-0  29464-4 0  9992,2 55398  70.0002 306.2073 0003416 272.4876  87.5929 15.69920157  9152,6737.262,91.724,361.429,356.826,0.0
55398.0,STARLINK-5275,PAYLOAD,2023-03-24 02:24:45,15.69975841,0.0003292,69.9976,305.1333,273.4851,86.5968,0.00028556,0.00034337,0.0,0 STARLINK-5275,1 55398U 23014H   23083.10053126  .00034337  00000-0  28556-3 0  9993,2 55398  69.9976 305.1333 0003292 273.4851  86.5968 15.69975841  8276,6737.103,91.721,361.186,356.75,0.0
55398.0,STARLINK-5275,PAYLOAD,2023-03-24 16:10:32,15.69933064,0.0003451,69.9988,303.5224,260.6957,99.3848,4.6784e-06,3.5e-06,0.0,0 STARLINK-5275,1 55398U 23014H   23083.67398152  .00000350  00000-0  46784-5 0  9999,2 55398  69.9988 303.5224 0003451 260.6957  99.3848 15.69933064  8362,6737.226,91.724,361.416,356.765,0.0
55398.0,STARLINK-5275,PAYLOAD,2023-03-24 17:42:16,15.69949489,0.000273,69.9987,303.3435,238.0473,122.0458,6.3493e-05,7.436e-05,0.0,0 STARLINK-5275,1 55398U 23014H   23083.73769539  .00007436  00000-0  63493-4 0  9994,2 55398  69.9987 303.3435 0002730 238.0473 122.0458 15.69949489  8374,6737.179,91.723,360.883,357.204,0.0
55398.0,STARLINK-5275,PAYLOAD,2023-03-24 22:17:31,15.69992572,0.0003423,69.9993,302.8062,248.061,112.0222,0.00026924,0.00032378,0.0,0 STARLINK-5275,1 55398U 23014H   23083.92883502  .00032378  00000-0  26924-3 0  9992,2 55398  69.9993 302.8062 0003423 248.0610 112.0222 15.69992572  9342,6737.055,91.72,361.226,356.614,0.0
55398.0,STARLINK-5275,PAYLOAD,2023-03-24 23:49:17,15.69919708,0.0003218,69.9993,302.628,250.995,109.0897,-0.00012824,-0.00015601,0.0,0 STARLINK-5275,1 55398U 23014H   23083.99255930 -.00015601  00000-0 -12824-3 0  9993,2 55398  69.9993 302.6280 0003218 250.9950 109.0897 15.69919708  8414,6737.264,91.724,361.297,356.961,0.0
55398.0,STARLINK-5275,PAYLOAD,2023-03-25 21:13:50,15.69901166,0.0003636,70.001,300.1218,228.0733,132.0153,2.7252e-05,3.062e-05,0.0,0 STARLINK-5275,1 55398U 23014H   23084.88460886  .00003062  00000-0  27252-4 0  9998,2 55398  70.0010 300.1218 0003636 228.0733 132.0153 15.69901166  9499,6737.317,91.726,361.631,356.732,0.0
55398.0,STARLINK-5275,PAYLOAD,2023-03-26 01:49:05,15.69924176,0.0003164,70.0006,299.5805,245.3065,114.7802,0.0003551,0.00042701,0.0,0 STARLINK-5275,1 55398U 23014H   23085.07576215  .00042701  00000-0  35510-3 0  9992,2 55398  70.0006 299.5805 0003164 245.3065 114.7802 15.69924176  8586,6737.251,91.724,361.248,356.984,0.0
55398.0,STARLINK-5275,PAYLOAD,2023-03-26 20:10:06,15.69945896,0.0002562,70.0009,297.4305,263.923,96.1674,0.00011632,0.00013808,0.0,0 STARLINK-5275,1 55398U 23014H   23085.84035820  .00013808  00000-0  11632-3 0  9994,2 55398  70.0009 297.4305 0002562 263.9230  96.1674 15.69945896  8708,6737.189,91.723,360.78,357.328,0.0
